SARSAT 7 (NOAA 15)      
1 25338U 98030A   22239.49053062  .00000100  00000+0  59766-4 0  9995
2 25338  98.6408 268.0846 0011556  91.1230 269.1274 14.26164797263140
METEOSAT-8 (MSG-1)      
1 27509U 02040B   22239.11522383  .00000135  00000+0  00000+0 0  9999
2 27509   8.1644  50.2533 0001366 121.1595 246.7839  1.00272093 73313
GPS BIIR-08             
1 27663U 03005A   22239.12572905  .00000037  00000+0  00000+0 0  9999
2 27663  55.4662 270.2535 0125624  41.1035   2.5539  2.00560502143431
GPS BIIR-11             
1 28190U 04009A   22239.34154149 -.00000065  00000+0  00000+0 0  9992
2 28190  55.9592 331.2470 0090063 124.4808 229.7853  2.00559052135061
GPS BIIR-13             
1 28474U 04045A   22239.47373405 -.00000075  00000+0  00000+0 0  9990
2 28474  55.3757  20.5994 0201824 279.7315  58.6072  2.00422574130557
SARSAT 10 (NOAA 18)     
1 28654U 05018A   22239.45417553  .00000099  00000+0  77259-4 0  9992
2 28654  98.9449 309.8201 0015193 128.8845 231.3684 14.12768361890001
GPS BIIR-14M            
1 28874U 05038A   22239.30247595 -.00000061  00000+0  00000+0 0  9994
2 28874  56.0223 328.6860 0138989 274.8134  76.9993  2.00572006123954
METEOSAT-9 (MSG-2)      
1 28912U 05049B   22239.11609583  .00000127  00000+0  00000+0 0  9999
2 28912   6.1730  65.8294 0000834 200.3040 156.6381  1.00271054 61095
GOES 13                 
1 29155U 06018A   22239.44146380  .00000034  00000+0  00000+0 0  9990
2 29155   0.7643  96.3306 0005814 104.2260 355.4874  1.00275185 29448
GPS BIIR-16M            
1 29601U 06052A   22239.37692128  .00000037  00000+0  00000+0 0  9995
2 29601  55.4750 269.1844 0082582  75.0064 285.9748  2.00554984115532
GPS BIIR-17M            
1 32260U 07047A   22239.18737037  .00000004  00000+0  00000+0 0  9997
2 32260  53.3307 137.6128 0142604  63.9975 297.5204  2.00570835108930
GPS BIIR-18M            
1 32384U 07062A   22239.52763580 -.00000061  00000+0  00000+0 0  9995
2 32384  56.1434 329.4476 0021043 143.7070 230.6076  2.00566224107641
SARSAT 12 (NOAA 19)     
1 33591U 09005A   22239.46347702  .00000133  00000+0  97030-4 0  9995
2 33591  99.1437 275.0764 0013677 353.0026   7.0952 14.12602490698218
GOES 14                 
1 35491U 09033A   22239.11785611 -.00000095  00000+0  00000+0 0  9998
2 35491   0.4500 268.1451 0016654 301.2252  63.8629  1.00268429 48173
GOES 15                 
1 36411U 10008A   22239.44782157  .00000050  00000+0  00000+0 0  9993
2 36411   0.4088 276.5669 0004665 250.0614 202.2550  1.00275662 45731
GPS BIIF-2              
1 37753U 11036A   22239.28455819 -.00000067  00000+0  00000+0 0  9998
2 37753  56.6377  25.9492 0118468  53.3020 295.2607  2.00565896 81396
GSAT0101 (GALILEO-PFM)  
1 37846U 11060A   22238.64204432 -.00000073  00000+0  00000+0 0  9997
2 37846  57.0217  19.4310 0002291  70.9369 289.0868  1.70475112 67415
GSAT0102 (GALILEO-FM2)  
1 37847U 11060B   22238.55782259 -.00000073  00000+0  00000+0 0  9996
2 37847  57.0228  19.4330 0001396   5.6937 349.3896  1.70475503 67539
LUCH 5A                 
1 37951U 11074B   22239.62248080 -.00000049  00000+0  00000+0 0  9998
2 37951   5.1913  96.3449 0004508  38.9503 231.5556  1.00271482 39257
METEOSAT-10 (MSG-3)     
1 38552U 12035B   22239.32394801  .00000058  00000+0  00000+0 0  9993
2 38552   1.6270  44.9723 0000279  47.0872   9.3132  1.00274682 36924
SARSAT 13 (METOP-B)     
1 38771U 12049A   22239.46209491  .00000034  00000+0  35510-4 0  9999
2 38771  98.6904 298.1451 0001085 135.5527  53.8988 14.21503288515822
GPS BIIF-3              
1 38833U 12053A   22239.28460313  .00000020  00000+0  00000+0 0  9991
2 38833  53.5279 200.4502 0127123  46.9376 314.0828  2.00562692 71569
GSAT0103 (GALILEO-FM3)  
1 38857U 12055A   22237.50828110 -.00000013  00000+0  00000+0 0  9998
2 38857  55.1546 139.8008 0003074 267.7051  92.3022  1.70473854 61420
GSAT0104 (GALILEO-FM4)  
1 38858U 12055B   22238.06487177 -.00000009  00000+0  00000+0 0  9990
2 38858  55.1549 139.7871 0000765 265.7122  94.3258  1.70474193 61297
GPS BIIF-4              
1 39166U 13023A   22239.14299013 -.00000056  00000+0  00000+0 0  9991
2 39166  55.6470 325.0371 0104020  38.5871 322.2074  2.00565584 68003
INSAT-3D                
1 39216U 13038B   22239.48205939 -.00000159  00000+0  00000+0 0  9998
2 39216   0.0568 280.2200 0001518 284.3429  26.7910  1.00270708 33166
GPS BIIF-5              
1 39533U 14008A   22239.14459516  .00000024  00000+0  00000+0 0  9993
2 39533  53.6208 205.9695 0060723 209.8741 149.7460  2.00557455 61803
LUCH 5V                 
1 39727U 14023A   22239.48458819 -.00000272  00000+0  00000+0 0  9993
2 39727   1.6599  76.2662 0003182 100.7355  67.8922  1.00273394 30426
GPS BIIF-6              
1 39741U 14026A   22239.42713743 -.00000068  00000+0  00000+0 0  9999
2 39741  56.5984  25.4697 0026356 305.1191  54.6417  2.00551075 60668
GPS BIIF-7              
1 40105U 14045A   22239.01068281  .00000003  00000+0  00000+0 0  9999
2 40105  54.7048 143.9878 0021871 110.9520 249.3254  2.00552119 58194
GSAT0201 (GALILEO 5)    
1 40128U 14050A   22238.81827073 -.00000078  00000+0  00000+0 0  9992
2 40128  50.2352 329.4800 1622830 126.6112 249.4510  1.85519205 52526
GSAT0202 (GALILEO 6)    
1 40129U 14050B   22237.46203816 -.00000083  00000+0  00000+0 0  9992
2 40129  50.2601 328.5964 1620028 127.3728 248.5242  1.85519817 54661
GPS BIIF-8              
1 40294U 14068A   22238.88244743  .00000007  00000+0  00000+0 0  9990
2 40294  55.8687  85.1531 0042847  58.0309 302.4759  2.00576525 57322
GLONASS-K 2             
1 40315U 14075A   22239.43797731  .00000064  00000+0  00000+0 0  9997
2 40315  63.6815 238.6845 0019592 212.4193 211.4980  2.13101445 60246
GPS BIIF-9              
1 40534U 15013A   22239.02762006  .00000040  00000+0  00000+0 0  9999
2 40534  53.6620 261.7703 0070125  20.2343 340.0994  2.00548059 53948
GSAT0203 (GALILEO 7)    
1 40544U 15017A   22237.83570033 -.00000075  00000+0  00000+0 0  9997
2 40544  56.8172  19.4766 0002710 214.0008 145.9815  1.70476288 46147
GSAT0204 (GALILEO 8)    
1 40545U 15017B   22238.67513903 -.00000073  00000+0  00000+0 0  9992
2 40545  56.8225  19.4664 0003007 192.9408 167.0506  1.70475903  8549
GPS BIIF-10             
1 40730U 15033A   22239.18540302 -.00000055  00000+0  00000+0 0  9996
2 40730  55.1436 323.8306 0074071   7.7436 352.4290  2.00574779 52116
METEOSAT-11 (MSG-4)     
1 40732U 15034A   22239.32211681 -.00000010  00000+0  00000+0 0  9991
2 40732   0.4352  69.6450 0001177  40.3175 341.1390  1.00269598 26096
GSAT0205 (GALILEO 9)    
1 40889U 15045A   22239.02899881  .00000056  00000+0  00000+0 0  9996
2 40889  55.5804 260.0129 0003661 347.7305  12.3184  1.70473531 43314
GSAT0206 (GALILEO 10)   
1 40890U 15045B   22238.07660916  .00000057  00000+0  00000+0 0  9998
2 40890  55.5794 260.0348 0002771 315.8567  44.1837  1.70473425 43325
GPS BIIF-11             
1 41019U 15062A   22239.23296088  .00000008  00000+0  00000+0 0  9991
2 41019  55.8566  84.9837 0079666 217.3670 142.1642  2.00562774 49951
ELEKTRO-L 2             
1 41105U 15074A   22239.39098258 -.00000118  00000+0  00000+0 0  9999
2 41105   3.1621  87.3226 0002525  94.4526 280.1365  1.00271948 24584
GSAT0209 (GALILEO 12)   
1 41174U 15079A   22237.66418843 -.00000012  00000+0  00000+0 0  9997
2 41174  55.1712 139.5006 0003596 323.2584  36.7614  1.70474038 41055
GSAT0208 (GALILEO 11)   
1 41175U 15079B   22239.05687155 -.00000001  00000+0  00000+0 0  9995
2 41175  55.1698 139.4608 0002413 335.9350  24.1091  1.70473851 41494
GPS BIIF-12             
1 41328U 16007A   22238.82307775  .00000001  00000+0  00000+0 0  9997
2 41328  54.9204 144.6840 0062439 230.3117 129.1772  2.00567513 47955
GSAT0211 (GALILEO 14)   
1 41549U 16030A   22239.17592024  .00000057  00000+0  00000+0 0  9991
2 41549  55.7252 259.9450 0004543 302.6518  57.3614  1.70475042 38979
GSAT0210 (GALILEO 13)   
1 41550U 16030B   22238.88193738  .00000057  00000+0  00000+0 0  9999
2 41550  55.7260 259.9544 0007300 272.6013  87.3737  1.70475141 38962
INSAT-3DR               
1 41752U 16054A   22239.48040258 -.00000080  00000+0  00000+0 0  9991
2 41752   0.0171 129.9243 0011286 133.7795 318.9387  1.00269704 21880
GSAT0207 (GALILEO 15)   
1 41859U 16069A   22238.54433420 -.00000006  00000+0  00000+0 0  9996
2 41859  54.8321 139.6404 0003553 305.7155  54.3021  1.70472696 35916
GSAT0212 (GALILEO 16)   
1 41860U 16069B   22238.39773411 -.00000007  00000+0  00000+0 0  9999
2 41860  54.8296 139.6419 0002693 338.0847  21.9533  1.70472752 35940
GSAT0213 (GALILEO 17)   
1 41861U 16069C   22237.00329492 -.00000017  00000+0  00000+0 0  9994
2 41861  54.8318 139.6858 0003347 278.1335  81.8674  1.70472946 35784
GSAT0214 (GALILEO 18)   
1 41862U 16069D   22238.32362052 -.00000007  00000+0  00000+0 0  9999
2 41862  54.8300 139.6437 0002297 284.6450  75.3785  1.70472762 35936
GOES 16                 
1 41866U 16071A   22239.45066725 -.00000251  00000+0  00000+0 0  9990
2 41866   0.0671 278.4476 0000581 299.6078 204.6372  1.00270592 21175
GSAT-17                 
1 42815U 17040B   22239.48432660 -.00000260  00000+0  00000+0 0  9990
2 42815   0.0405 289.7118 0003219 319.4545 354.3596  1.00269674 18855
GSAT0215 (GALILEO 19)   
1 43055U 17079A   22238.81371812  .00000057  00000+0  00000+0 0  9999
2 43055  55.7012 259.7864 0004092 268.5139  91.4978  1.70474291 29283
GSAT0216 (GALILEO 20)   
1 43056U 17079B   22237.34615097  .00000057  00000+0  00000+0 0  9993
2 43056  55.7070 259.8264 0005747 273.6962  86.3030  1.70474449 29278
GSAT0217 (GALILEO 21)   
1 43057U 17079C   22237.56640534  .00000057  00000+0  00000+0 0  9992
2 43057  55.7004 259.8203 0005118 282.1192  77.8877  1.70474417 29269
GSAT0218 (GALILEO 22)   
1 43058U 17079D   22238.95960073  .00000057  00000+0  00000+0 0  9990
2 43058  55.6998 259.7793 0006249 271.1785  88.8077  1.70474364 29317
GOES 17                 
1 43226U 18022A   22239.53348940  .00000095  00000+0  00000+0 0  9996
2 43226   0.1057 278.5257 0000164 238.5006 233.4523  1.00271819 16483
